JINJUSAT-1B             
1 63210U 25052A   26068.66363707  .00019955  00000+0  68430-3 0  9998
2 63210  97.4113 325.4613 0005550  82.1930 277.9941 15.30194857 54866
STARLINK-35458          
1 65925U 25225R   26068.50289853  .00019075  00000+0  65453-3 0  9992
2 65925  53.1583 166.2511 0001258 108.0336 252.0802 15.30198318 24388
