[{"OBJECT_NAME":"JINJUSAT-1B","OBJECT_ID":"2025-052A","EPOCH":"2026-03-09T15:55:38.242848","MEAN_MOTION":15.30194857,"ECCENTRICITY":0.00055504,"INCLINATION":97.4113,"RA_OF_ASC_NODE":325.4613,"ARG_OF_PERICENTER":82.193,"MEAN_ANOMALY":277.9941,"EPHEMERIS_TYPE":0,"CLASSIFICATION_TYPE":"U","NORAD_CAT_ID":63210,"ELEMENT_SET_NO":999,"REV_AT_EPOCH":5486,"BSTAR":0.00068430401,"MEAN_MOTION_DOT":0.00019955,"MEAN_MOTION_DDOT":0},{"OBJECT_NAME":"STARLINK-35458","OBJECT_ID":"2025-225R","EPOCH":"2026-03-09T12:04:10.432992","MEAN_MOTION":15.30198318,"ECCENTRICITY":0.00012583,"INCLINATION":53.1583,"RA_OF_ASC_NODE":166.2511,"ARG_OF_PERICENTER":108.0336,"MEAN_ANOMALY":252.0802,"EPHEMERIS_TYPE":0,"CLASSIFICATION_TYPE":"U","NORAD_CAT_ID":65925,"ELEMENT_SET_NO":999,"REV_AT_EPOCH":2438,"BSTAR":0.00065452582,"MEAN_MOTION_DOT":0.00019075,"MEAN_MOTION_DDOT":0}]
